[{"OBJECT_NAME":"SITRO-AIS 5 (KATYS)","OBJECT_ID":"2023-091L","EPOCH":"2026-03-09T22:36:44.932608","MEAN_MOTION":15.27079182,"ECCENTRICITY":0.00133776,"INCLINATION":97.5176,"RA_OF_ASC_NODE":132.0172,"ARG_OF_PERICENTER":94.5677,"MEAN_ANOMALY":265.709,"EPHEMERIS_TYPE":0,"CLASSIFICATION_TYPE":"U","NORAD_CAT_ID":57176,"ELEMENT_SET_NO":999,"REV_AT_EPOCH":14918,"BSTAR":0.00057530772,"MEAN_MOTION_DOT":0.00015262,"MEAN_MOTION_DDOT":0},{"OBJECT_NAME":"STARLINK-31835","OBJECT_ID":"2024-091V","EPOCH":"2026-03-09T07:01:52.770432","MEAN_MOTION":15.30196188,"ECCENTRICITY":0.00012823,"INCLINATION":53.1617,"RA_OF_ASC_NODE":28.7235,"ARG_OF_PERICENTER":92.4836,"MEAN_ANOMALY":267.6311,"EPHEMERIS_TYPE":0,"CLASSIFICATION_TYPE":"U","NORAD_CAT_ID":59772,"ELEMENT_SET_NO":999,"REV_AT_EPOCH":10294,"BSTAR":7.6158103e-5,"MEAN_MOTION_DOT":1.897e-5,"MEAN_MOTION_DDOT":0}]
